CCSDS_OEM_VERS = 1.0
CREATION_DATE  = 2017-05-11T11:16:15
ORIGINATOR     = GMAT USER

META_START
OBJECT_NAME          = MOPSSat_alt_35785_km_RAAN_90_079
OBJECT_ID            = SatId
CENTER_NAME          = Earth
REF_FRAME            = EME2000
TIME_SYSTEM          = UTC
START_TIME           = 2017-01-01T00:00:00.000
USEABLE_START_TIME   = 2017-01-01T00:00:00.000
USEABLE_STOP_TIME    = 2017-01-02T00:00:00.000
STOP_TIME            = 2017-01-02T00:00:00.000
INTERPOLATION        = Lagrange
INTERPOLATION_DEGREE = 7 
META_STOP


                                                                                   

2017-01-01T13:35:50.000   1.734419241135152e+04  -3.884725514952679e+04   1.070630138236999e-01   2.777251182998081e+00   1.253791332176804e+00  -1.059469155920873e-04
2017-01-01T13:36:00.000   1.737196043199741e+04  -3.883470718217469e+04   1.060032929913611e-01   2.776352652174297e+00   1.255802009108208e+00  -1.059972412491109e-04
2017-01-01T13:36:10.000   1.739971945957804e+04  -3.882213911145357e+04   1.049430691509517e-01   2.775452676068840e+00   1.257812053784078e+00  -1.060475212465949e-04
2017-01-01T13:36:20.000   1.742746947992409e+04  -3.880955094356352e+04   1.038823427485743e-01   2.774551255100138e+00   1.259821465200947e+00  -1.060977555331607e-04
2017-01-01T13:36:30.000   1.745521047880694e+04  -3.879694268474362e+04   1.028211142332750e-01   2.773648389689380e+00   1.261830242351008e+00  -1.061479440573195e-04
2017-01-01T13:36:40.000   1.748294244208048e+04  -3.878431434120807e+04   1.017593840516445e-01   2.772744080255948e+00   1.263838384232381e+00  -1.061980867677333e-04
2017-01-01T13:36:50.000   1.751066535532071e+04  -3.877166591930712e+04   1.006971526614997e-01   2.771838327228930e+00   1.265845889823022e+00  -1.062481836125530e-04
2017-01-01T13:37:00.000   1.753837920409367e+04  -3.875899742540834e+04   9.963442052174590e-02   2.770931131038636e+00   1.267852758100116e+00  -1.062982345399126e-04
2017-01-01T13:37:10.000   1.756608397395492e+04  -3.874630886589569e+04   9.857118809234884e-02   2.770022492116508e+00   1.269858988040048e+00  -1.063482394979252e-04
2017-01-01T13:37:20.000   1.759377965018442e+04  -3.873360024729399e+04   9.750745584462449e-02   2.769112410904054e+00   1.271864578599197e+00  -1.063981984342115e-04
2017-01-01T13:37:30.000   1.762146621814419e+04  -3.872087157610222e+04   9.644322424740573e-02   2.768200887840898e+00   1.273869528739836e+00  -1.064481112965384e-04
2017-01-01T13:37:40.000   1.764914366313719e+04  -3.870812285885879e+04   9.537849377248321e-02   2.767287923369464e+00   1.275873837419918e+00  -1.064979780325664e-04
2017-01-01T13:37:50.000   1.767681197103209e+04  -3.869535410185406e+04   9.431326487058136e-02   2.766373517914376e+00   1.277877503638314e+00  -1.065477985909770e-04
2017-01-01T13:38:00.000   1.770447112763844e+04  -3.868256531141766e+04   9.324753799537731e-02   2.765457671903047e+00   1.279880526389570e+00  -1.065975729203437e-04
2017-01-01T13:38:10.000   1.773212111884816e+04  -3.866975649385387e+04   9.218131359807988e-02   2.764540385761044e+00   1.281882904674150e+00  -1.066473009693892e-04
2017-01-01T13:38:20.000   1.775976193027614e+04  -3.865692765560478e+04   9.111459214116920e-02   2.763621659923771e+00   1.283884637472410e+00  -1.066969826863264e-04
2017-01-01T13:38:30.000   1.778739354752743e+04  -3.864407880312997e+04   9.004737408821549e-02   2.762701494827862e+00   1.285885723763948e+00  -1.067466180193528e-04
2017-01-01T13:38:40.000   1.781501595619672e+04  -3.863120994290537e+04   8.897965990385120e-02   2.761779890911085e+00   1.287886162527568e+00  -1.067962069166441e-04
2017-01-01T13:38:50.000   1.784262914160399e+04  -3.861832108154963e+04   8.791145006410336e-02   2.760856848621405e+00   1.289885952722126e+00  -1.068457493258982e-04
2017-01-01T13:39:00.000   1.787023308915110e+04  -3.860541222565503e+04   8.684274504250265e-02   2.759932368404868e+00   1.291885093312365e+00  -1.068952451949565e-04
2017-01-01T13:39:10.000   1.789782778417848e+04  -3.859248338185490e+04   8.577354531565130e-02   2.759006450710438e+00   1.293883583258534e+00  -1.069446944715535e-04
2017-01-01T13:39:20.000   1.792541321259834e+04  -3.857953455652717e+04   8.470385133869185e-02   2.758079095968746e+00   1.295881421562241e+00  -1.069940971044344e-04
2017-01-01T13:39:30.000   1.795298936025978e+04  -3.856656575609146e+04   8.363366356989589e-02   2.757150304613395e+00   1.297878607220480e+00  -1.070434530422347e-04
2017-01-01T13:39:40.000   1.798055621311282e+04  -3.855357698693260e+04   8.256298246432149e-02   2.756220077075456e+00   1.299875139237505e+00  -1.070927622337674e-04
2017-01-01T13:39:50.000   1.800811375676712e+04  -3.854056825560571e+04   8.149180849085341e-02   2.755288413798176e+00   1.301871016592876e+00  -1.071420246272480e-04
2017-01-01T13:40:00.000   1.803566197685632e+04  -3.852753956866738e+04   8.042014211815009e-02   2.754355315224872e+00   1.303866238267843e+00  -1.071912401709320e-04
2017-01-01T13:40:10.000   1.806320085895666e+04  -3.851449093271312e+04   7.934798381777755e-02   2.753420781801623e+00   1.305860803239452e+00  -1.072404088129754e-04
2017-01-01T13:40:20.000   1.809073038860976e+04  -3.850142235436855e+04   7.827533406339018e-02   2.752484813976638e+00   1.307854710482189e+00  -1.072895305014603e-04
2017-01-01T13:40:30.000   1.811825055134937e+04  -3.848833384027521e+04   7.720219332963220e-02   2.751547412199234e+00   1.309847958969930e+00  -1.073386051844580e-04
2017-01-01T13:40:40.000   1.814576133271151e+04  -3.847522539708591e+04   7.612856209175507e-02   2.750608576919512e+00   1.311840547676664e+00  -1.073876328100412e-04
2017-01-01T13:40:50.000   1.817326271833306e+04  -3.846209703141853e+04   7.505444082179363e-02   2.749668308585038e+00   1.313832475583639e+00  -1.074366133264770e-04
2017-01-01T13:41:00.000   1.820075469388588e+04  -3.844894874988648e+04   7.397982999110578e-02   2.748726607643035e+00   1.315823741674588e+00  -1.074855466820921e-04
2017-01-01T13:41:10.000   1.822823724507682e+04  -3.843578055909885e+04   7.290473007037647e-02   2.747783474540384e+00   1.317814344935735e+00  -1.075344328252790e-04
2017-01-01T13:41:20.000   1.825571035771297e+04  -3.842259246562823e+04   7.182914152703594e-02   2.746838909721331e+00   1.319804284360511e+00  -1.075832717045945e-04
2017-01-01T13:41:30.000   1.828317401760357e+04  -3.840938447605845e+04   7.075306482911785e-02   2.745892913630887e+00   1.321793558942462e+00  -1.076320632686026e-04
2017-01-01T13:41:40.000   1.831062821055025e+04  -3.839615659698934e+04   6.967650044565196e-02   2.744945486715193e+00   1.323782167674530e+00  -1.076808074658515e-04
2017-01-01T13:41:50.000   1.833807292231907e+04  -3.838290883504884e+04   6.859944884770497e-02   2.743996629422369e+00   1.325770109547041e+00  -1.077295042448376e-04
2017-01-01T13:42:00.000   1.836550813861931e+04  -3.836964119690496e+04   6.752191050927812e-02   2.743046342203380e+00   1.327757383546153e+00  -1.077781535539547e-04
2017-01-01T13:42:10.000   1.839293384518387e+04  -3.835635368922618e+04   6.644388590412344e-02   2.742094625509193e+00   1.329743988659691e+00  -1.078267553416411e-04
2017-01-01T13:42:20.000   1.842035002740885e+04  -3.834304631885848e+04   6.536537551999573e-02   2.741141479803471e+00   1.331729923851036e+00  -1.078753095557304e-04
2017-01-01T13:42:30.000   1.844775667079055e+04  -3.832971909261126e+04   6.428637984139254e-02   2.740186905547217e+00   1.333715188090776e+00  -1.079238161442357e-04
2017-01-01T13:42:40.000   1.847515376076284e+04  -3.831637201733675e+04   6.320689935596684e-02   2.739230903204481e+00   1.335699780344932e+00  -1.079722750550585e-04
2017-01-01T13:42:50.000   1.850254128332753e+04  -3.830300509962312e+04   6.212693452970213e-02   2.738273473220374e+00   1.337683699620614e+00  -1.080206862371139e-04
2017-01-01T13:43:00.000   1.852991922442546e+04  -3.828961834610046e+04   6.104648583167010e-02   2.737314616042978e+00   1.339666944920474e+00  -1.080690496392088e-04
2017-01-01T13:43:10.000   1.855728757007934e+04  -3.827621176337173e+04   5.996555372842983e-02   2.736354332118405e+00   1.341649515253038e+00  -1.081173652102969e-04
2017-01-01T13:43:20.000   1.858464630603783e+04  -3.826278535818368e+04   5.888413869796016e-02   2.735392621903040e+00   1.343631409606939e+00  -1.081656328988411e-04
2017-01-01T13:43:30.000   1.861199541804010e+04  -3.824933913730075e+04   5.780224121933456e-02   2.734429485854509e+00   1.345612626970076e+00  -1.082138526532903e-04
2017-01-01T13:43:40.000   1.863933489181536e+04  -3.823587310750400e+04   5.671986177269459e-02   2.733464924431598e+00   1.347593166329571e+00  -1.082620244220751e-04
2017-01-01T13:43:50.000   1.866666471282116e+04  -3.822238727572318e+04   5.563700084972083e-02   2.732498938103721e+00   1.349573026652826e+00  -1.083101481531539e-04
2017-01-01T13:44:00.000   1.869398486659640e+04  -3.820888164885982e+04   5.455365893955428e-02   2.731531527338241e+00   1.351552206913081e+00  -1.083582237946284e-04
2017-01-01T13:44:10.000   1.872129533862205e+04  -3.819535623385662e+04   5.346983653433412e-02   2.730562692605447e+00   1.353530706079333e+00  -1.084062512944996e-04
2017-01-01T13:44:20.000   1.874859611493757e+04  -3.818181103739238e+04   5.238553410474273e-02   2.729592434356688e+00   1.355508523160991e+00  -1.084542306017541e-04
2017-01-01T13:44:30.000   1.877588718152447e+04  -3.816824606618669e+04   5.130075212445581e-02   2.728620753046225e+00   1.357485657163217e+00  -1.085021616652761e-04
2017-01-01T13:44:40.000   1.880316852444583e+04  -3.815466132693175e+04   5.021549106462342e-02   2.727647649126311e+00   1.359462107097033e+00  -1.085500444340963e-04
2017-01-01T13:44:50.000   1.883044012949168e+04  -3.814105682646514e+04   4.912975140785886e-02   2.726673123059602e+00   1.361437871953634e+00  -1.085978788567552e-04
